     3.02           N: GNSS NAV DATA    E: GALILEO          RINEX VERSION / TYPE
TPP 4.3.2                               20231029 235930 UTC PGM / RUN BY / DATE 
                                                            COMMENT             
                                                            COMMENT             
                                                            COMMENT             
GAL     .2142E-07  -.7451E-08  -.1192E-06   .0000E+00       IONOSPHERIC CORR    
GAUT  -.2793967724E-08 -.444089210E-14 233472 2286          TIME SYSTEM CORR    
    18                                                      LEAP SECONDS        
                                                            END OF HEADER       
E24 2023 10 29 23 10 00 -.402997888159E-03 -.209183781408E-10  .000000000000E+00
      .110000000000E+02  .221218750000E+03  .288119144176E-08  .905673971630E+00
      .103544443846E-04  .540632521734E-03  .113546848297E-04  .544064503479E+04
      .834000000000E+05  .745058059692E-08 -.259810340790E+01  .465661287308E-07
      .966125576585E+00  .966250000000E+02  .611270631978E+00 -.551487257372E-08
      .246081678861E-09  .257000000000E+03  .228600000000E+04  .000000000000E+00
      .312000000000E+01  .000000000000E+00 -.465661287308E-08 -.372529029846E-08
      .840850000000E+05  .000000000000E+00  .000000000000E+00  .000000000000E+00
E25 2023 10 29 11 20 00 -.377028482035E-05 -.568434188608E-13  .000000000000E+00
      .680000000000E+02  .240781250000E+03  .274761444917E-08  .270931403799E+01
      .111069530249E-04  .253540463746E-03  .106114894152E-04  .544063154221E+04
      .408000000000E+05  .707805156708E-07 -.260123983843E+01 -.596046447754E-07
      .968273508981E+00  .117468750000E+03 -.992667521661E+00 -.552344435934E-08
      .248581783000E-09  .257000000000E+03  .228600000000E+04  .000000000000E+00
      .312000000000E+01  .000000000000E+00  .372529029846E-08  .349245965481E-08
      .414850000000E+05  .000000000000E+00  .000000000000E+00  .000000000000E+00
E26 2023 10 29 23 40 00  .265778799076E-03  .110560449684E-10  .000000000000E+00
      .140000000000E+02 -.202187500000E+03  .254974906443E-08 -.201729402775E+01
     -.955723226070E-05  .310697010718E-03  .814162194729E-05  .544060035515E+04
      .852000000000E+05 -.167638063431E-07 -.509991142698E+00  .745058059692E-08
      .993467016632E+00  .183937500000E+03 -.229272490426E+01 -.538522431621E-08
     -.478591363823E-09  .257000000000E+03  .228600000000E+04  .000000000000E+00
      .312000000000E+01  .000000000000E+00 -.512227416039E-08 -.465661287308E-08
      .858850000000E+05  .000000000000E+00  .000000000000E+00  .000000000000E+00
E27 2023 10 29 20 20 00 -.186824356206E-03 -.943600753089E-11  .000000000000E+00
      .122000000000E+03  .228781250000E+03  .281368863000E-08 -.236481677282E+01
      .105258077383E-04  .251681776717E-03  .993348658085E-05  .544063467407E+04
      .732000000000E+05 -.372529029846E-08 -.260143405983E+01 -.353902578354E-07
      .968245637466E+00  .129000000000E+03 -.545393641720E+00 -.548487132405E-08
      .160720980388E-09  .257000000000E+03  .228600000000E+04  .000000000000E+00
      .312000000000E+01  .000000000000E+00  .209547579288E-08  .209547579288E-08
      .738850000000E+05  .000000000000E+00  .000000000000E+00  .000000000000E+00
E30 2023 10 29 16 40 00 -.619246857241E-03 -.307096570396E-10  .000000000000E+00
      .100000000000E+03  .236437500000E+03  .282261757335E-08  .197455201753E+01
      .107195228338E-04  .334626762196E-03  .102277845144E-04  .544064303398E+04
      .600000000000E+05  .186264514923E-07 -.259805140848E+01 -.242143869400E-07
      .966104696356E+00  .124281250000E+03  .560670772337E+00 -.552773025215E-08
      .135362781260E-09  .257000000000E+03  .228600000000E+04  .000000000000E+00
      .312000000000E+01  .000000000000E+00  .139698386192E-08  .162981450558E-08
      .606850000000E+05  .000000000000E+00  .000000000000E+00  .000000000000E+00
E31 2023 10 29 23 40 00 -.893836840987E-05 -.966338120634E-12  .000000000000E+00
      .140000000000E+02  .237656250000E+03  .284440419514E-08 -.262298743377E+01
      .111069530249E-04  .281825312413E-03  .107940286398E-04  .544063361549E+04
      .852000000000E+05 -.745058059692E-08 -.260154459792E+01 -.223517417908E-07
      .968251645670E+00  .112312500000E+03 -.115679088633E+01 -.545058418157E-08
      .280368821344E-09  .257000000000E+03  .228600000000E+04  .000000000000E+00
      .312000000000E+01  .000000000000E+00  .582076609135E-08  .535510480404E-08
      .858850000000E+05  .000000000000E+00  .000000000000E+00  .000000000000E+00
E33 2023 10 29 22 50 00  .128161627799E-05  .838440428197E-12  .000000000000E+00
      .900000000000E+01 -.230562500000E+03  .232831126922E-08 -.283071602250E+01
     -.106599181890E-04  .328935217112E-03  .848993659019E-05  .544061430550E+04
      .822000000000E+05  .000000000000E+00 -.510962071187E+00  .540167093277E-07
      .100016892523E+01  .174687500000E+03 -.258443816139E+01 -.537665253059E-08
     -.479662837025E-09  .257000000000E+03  .228600000000E+04  .000000000000E+00
      .312000000000E+01  .000000000000E+00 -.279396772385E-08 -.232830643654E-08
      .828850000000E+05  .000000000000E+00  .000000000000E+00  .000000000000E+00
E34 2023 10 29 17 30 00 -.750540057197E-04 -.206057393370E-11  .000000000000E+00
      .105000000000E+03 -.208937500000E+03  .232759695376E-08 -.149919655608E+01
     -.982545316219E-05  .318197184242E-03  .856444239616E-05  .544060615921E+04
      .630000000000E+05  .130385160446E-07 -.512639412095E+00  .372529029846E-08
      .100000596494E+01  .173562500000E+03  .310423365817E+01 -.534486549224E-08
     -.371801201298E-09  .257000000000E+03  .228600000000E+04  .000000000000E+00
      .312000000000E+01  .000000000000E+00  .488944351673E-08  .395812094212E-08
      .636850000000E+05  .000000000000E+00  .000000000000E+00  .000000000000E+00
E36 2023 10 29 06 10 00 -.136484624818E-03 -.532907051820E-11  .000000000000E+00
      .370000000000E+02 -.192750000000E+03  .243331564308E-08 -.882138014532E+00
     -.905431807041E-05  .176182715222E-03  .954791903496E-05  .544060834694E+04
      .222000000000E+05  .000000000000E+00 -.510606517725E+00 -.856816768646E-07
      .100017457649E+01  .152937500000E+03 -.178582905922E+01 -.532200739726E-08
     -.300726812193E-09  .257000000000E+03  .228600000000E+04  .000000000000E+00
      .312000000000E+01  .000000000000E+00  .698491930962E-08  .605359673500E-08
      .228850000000E+05  .000000000000E+00  .000000000000E+00  .000000000000E+00
E31 2023 10 29 23 50 00 -.893900869414E-05 -.966338120634E-12  .000000000000E+00
      .150000000000E+02  .237625000000E+03  .282618915069E-08 -.254719853862E+01
      .111069530249E-04  .281649059616E-03  .106636434793E-04  .544063447380E+04
      .858000000000E+05 -.558793544769E-08 -.260154787632E+01 -.242143869400E-07
      .968251821221E+00  .115812500000E+03 -.115819506825E+01 -.544879839290E-08
      .280368821344E-09  .257000000000E+03  .228600000000E+04  .000000000000E+00
      .312000000000E+01  .000000000000E+00  .582076609135E-08  .535510480404E-08
      .864850000000E+05  .000000000000E+00  .000000000000E+00  .000000000000E+00
E12 2023 10 29 23 50 00 -.756187539082E-03 -.148787648868E-10  .000000000000E+00
      .150000000000E+02 -.236718750000E+03  .250689013632E-08  .769026503806E+00
     -.109653919935E-04  .131163862534E-03  .767037272453E-05  .544061859703E+04
      .858000000000E+05  .651925802231E-07 -.509389495694E+00  .447034835815E-07
      .997050962580E+00  .189562500000E+03 -.278963500361E+00 -.547094217242E-08
     -.485020203038E-09  .257000000000E+03  .228600000000E+04  .000000000000E+00
      .312000000000E+01  .000000000000E+00 -.104773789644E-07 -.104773789644E-07
      .864850000000E+05  .000000000000E+00  .000000000000E+00  .000000000000E+00
E10 2023 10 29 23 50 00 -.574919278733E-03 -.281374923361E-11  .000000000000E+00
      .150000000000E+02 -.243500000000E+03  .252189076116E-08 -.282106769741E+01
     -.113174319267E-04  .271217781119E-03  .735186040401E-05  .544060772514E+04
      .858000000000E+05  .540167093277E-07 -.512789729853E+00 -.130385160446E-07
      .100001010061E+01  .197187500000E+03  .293281279876E+01 -.547808532710E-08
     -.503949562951E-09  .257000000000E+03  .228600000000E+04  .000000000000E+00
      .312000000000E+01  .000000000000E+00  .465661287308E-09 -.232830643654E-09
      .864850000000E+05  .000000000000E+00  .000000000000E+00  .000000000000E+00
E26 2023 10 29 23 50 00  .265785434749E-03  .110418341137E-10  .000000000000E+00
      .150000000000E+02 -.201375000000E+03  .255724937684E-08 -.194327885202E+01
     -.954233109951E-05  .310670933686E-03  .815466046333E-05  .544060012436E+04
      .858000000000E+05 -.167638063431E-07 -.509994377210E+00  .745058059692E-08
      .993466731363E+00  .183437500000E+03 -.229235464115E+01 -.538486715847E-08
     -.478591363823E-09  .257000000000E+03  .228600000000E+04  .000000000000E+00
      .312000000000E+01  .000000000000E+00 -.512227416039E-08 -.465661287308E-08
      .864850000000E+05  .000000000000E+00  .000000000000E+00  .000000000000E+00
E33 2023 10 29 23 50 00  .128435203806E-05  .838440428197E-12  .000000000000E+00
      .150000000000E+02 -.227343750000E+03  .236974156639E-08 -.238749339575E+01
     -.105351209641E-04  .329328700900E-03  .818818807602E-05  .544061214066E+04
      .858000000000E+05 -.558793544769E-08 -.510981437296E+00  .558793544769E-07
      .100016719168E+01  .182750000000E+03 -.258135238732E+01 -.537522389965E-08
     -.478234206089E-09  .257000000000E+03  .228600000000E+04  .000000000000E+00
      .312000000000E+01  .000000000000E+00 -.279396772385E-08 -.209547579288E-08
      .868150000000E+05  .000000000000E+00  .000000000000E+00  .000000000000E+00
